COSMOS 2058             
1 20465U 90010A   26080.89638100  .00005225  00000+0  30750-3 0  9999
2 20465  82.4680  35.3989 0007737 299.7173  60.3286 15.11423579944084
SL-14 R/B               
1 20466U 90010B   26080.75979888  .00000460  00000+0  52901-4 0  9995
2 20466  82.4988 256.0473 0018351 259.3819 100.5329 14.83579385930275
SL-14 R/B               
1 20511U 90018B   26080.85673480  .00000470  00000+0  55993-4 0  9999
2 20511  82.5225 211.7186 0017370  55.1007 305.1836 14.82156974924386
HST                     
1 20580U 90037B   26080.94796918  .00009017  00000+0  29689-3 0  9996
2 20580  28.4725 316.3669 0001497 262.8571  97.1855 15.29665795775190
SL-16 R/B               
1 20625U 90046B   26080.92688679  .00000105  00000+0  79019-4 0  9990
2 20625  70.9953 272.2118 0016233 283.5104  76.4210 14.15012271850121
COSMOS 2084             
1 20663U 90055A   26080.94194133  .00002654  00000+0  19611-3 0  9993
2 20663  62.7895 293.7878 0015162 193.5115 166.5582 15.05713842938166
SL-6 R/B(2)             
1 20666U 90055D   26080.80836491  .00002392  00000+0  18718-3 0  9997
2 20666  62.7832 212.6362 0026775 349.8961  10.1596 15.03650957940016
SL-8 R/B                
1 20775U 90078B   26080.93798892  .00018386  00000+0  54403-3 0  9990
2 20775  82.9017 240.2895 0359710 332.7304  25.5415 14.89435662811120
SL-8 R/B                
1 21088U 91006B   26080.99508465  .00000099  00000+0  83964-4 0  9998
2 21088  82.9457 160.8979 0022308   4.5191 168.2767 13.77495959765768
OKEAN-3                 
1 21397U 91039A   26080.91384120  .00002688  00000+0  18792-3 0  9991
2 21397  82.5180 325.0017 0012685 291.3139  68.6733 15.04880250866877
COSMOS 2151             
1 21422U 91042A   26080.88991990  .00001812  00000+0  14285-3 0  9990
2 21422  82.4937  71.9035 0013131  25.9853 334.2028 15.00153148865023
SL-14 R/B               
1 21423U 91042B   26080.84481544  .00000486  00000+0  58402-4 0  9992
2 21423  82.4945 208.7855 0016609 196.5076 163.5600 14.81841645854872
